ORBCOMM FM119           
1 41180U 15081B   26061.33868146  .00000846  00000+0  21611-3 0  9994
2 41180  47.0005  56.4783 0000834 214.6205 145.4626 14.58658434543402
ORBCOMM FM105           
1 41181U 15081C   26061.34577877  .00000304  00000+0  12992-3 0  9995
2 41181  47.0006  86.6991 0001343   3.6976 356.3914 14.45486399538094
ORBCOMM FM110           
1 41182U 15081D   26061.60287500  .00001171  00000+0  28484-3 0  9992
2 41182  47.0014 145.3457 0003561 291.4189  68.6316 14.58717336542064
ORBCOMM FM118           
1 41183U 15081E   26061.56895597  .00001108  00000+0  27147-3 0  9994
2 41183  47.0035 145.8195 0003896 260.4519  99.5926 14.58712981542168
ORBCOMM FM112           
1 41184U 15081F   26061.16095813  .00000884  00000+0  22380-3 0  9998
2 41184  46.9993  56.2504 0001049  41.3329 318.7636 14.58714074543320
ORBCOMM FM113           
1 41185U 15081G   26061.34365481  .00000855  00000+0  21765-3 0  9994
2 41185  47.0008  55.7537 0000628  48.2924 311.8016 14.58715640543336
ORBCOMM FM115           
1 41186U 15081H   26061.71384822  .00000942  00000+0  21554-3 0  9999
2 41186  46.9973 249.4527 0001107 202.2460 157.8380 14.63103256545623
ORBCOMM FM108           
1 41187U 15081J   26061.44330622  .00001237  00000+0  29872-3 0  9998
2 41187  47.0060 326.8223 0002241  51.8393 308.2694 14.58727128544497
ORBCOMM FM117           
1 41188U 15081K   26061.40882061  .00001172  00000+0  28489-3 0  9995
2 41188  47.0023 325.6543 0002555  62.6974 297.4172 14.58718967544538
ORBCOMM FM116           
1 41189U 15081L   26061.25260051  .00001002  00000+0  24889-3 0  9990
2 41189  47.0025  56.1736 0002704 286.7373  73.3216 14.58709031543327
